NORAD_CAT_ID,OBJECT_NAME,OBJECT_TYPE,EPOCH,MEAN_MOTION,ECCENTRICITY,INCLINATION,RA_OF_ASC_NODE,ARG_OF_PERICENTER,MEAN_ANOMALY,BSTAR,MEAN_MOTION_DOT,MEAN_MOTION_DDOT,TLE_LINE0,TLE_LINE1,TLE_LINE2,SEMIMAJOR_AXIS,PERIOD,APOGEE,PERIGEE,DECAYED
53161.0,STARLINK-4055,PAYLOAD,2023-12-20 20:19:03,15.08832768,0.0001988,53.2161,199.6474,57.2277,302.8907,8.9481e-06,-1.46e-06,0.0,0 STARLINK-4055,1 53161U 22083AF  23354.84656991 -.00000146  00000-0  89481-5 0  9993,2 53161  53.2161 199.6474 0001988  57.2277 302.8907 15.08832768 79735,6917.902,95.438,541.143,538.392,0.0
53161.0,STARLINK-4055,PAYLOAD,2023-12-22 20:00:36,15.08853338,0.0001671,53.2157,190.7246,79.3071,280.811,0.00013912,1.928e-05,0.0,0 STARLINK-4055,1 53161U 22083AF  23356.83375659  .00001928  00000-0  13912-3 0  9995,2 53161  53.2157 190.7246 0001671  79.3071 280.8110 15.08853338 80037,6917.84,95.437,540.861,538.549,0.0
53161.0,STARLINK-4055,PAYLOAD,2023-12-23 13:29:50,15.0884791,0.0001667,53.2154,187.4532,86.2864,273.8318,-5.1733e-05,-1.112e-05,0.0,0 STARLINK-4055,1 53161U 22083AF  23357.56239446 -.00001112  00000-0 -51733-4 0  9990,2 53161  53.2154 187.4532 0001667  86.2864 273.8318 15.08847910 79519,6917.856,95.437,540.874,538.568,0.0
53161.0,STARLINK-4055,PAYLOAD,2023-12-23 18:16:00,15.08847748,0.0001655,53.2164,186.5609,88.0853,272.0329,1.0587e-05,-1.2e-06,0.0,0 STARLINK-4055,1 53161U 22083AF  23357.76111585 -.00000120  00000-0  10587-4 0  9994,2 53161  53.2164 186.5609 0001655  88.0853 272.0329 15.08847748 80176,6917.857,95.437,540.867,538.577,0.0
53161.0,STARLINK-4055,PAYLOAD,2023-12-24 19:42:10,15.08846864,0.0001535,53.216,181.8033,92.8417,267.2751,-5.6268e-05,-1.184e-05,0.0,0 STARLINK-4055,1 53161U 22083AF  23358.82095505 -.00001184  00000-0 -56268-4 0  9993,2 53161  53.2160 181.8033 0001535  92.8417 267.2751 15.08846864 80338,6917.859,95.437,540.786,538.663,0.0
53161.0,STARLINK-4055,PAYLOAD,2023-12-25 11:36:02,15.08839016,0.0001492,53.2159,178.8312,88.0821,272.0342,4.4524e-05,4.21e-06,0.0,0 STARLINK-4055,1 53161U 22083AF  23359.48335753  .00000421  00000-0  44524-4 0  9991,2 53161  53.2159 178.8312 0001492  88.0821 272.0342 15.08839016 80432,6917.883,95.438,540.781,538.716,0.0
53161.0,STARLINK-4055,PAYLOAD,2023-12-25 19:32:57,15.08841584,0.0001478,53.2158,177.3453,85.6048,274.5113,5.9531e-05,6.6e-06,0.0,0 STARLINK-4055,1 53161U 22083AF  23359.81455518  .00000660  00000-0  59531-4 0  9999,2 53161  53.2158 177.3453 0001478  85.6048 274.5113 15.08841584 79859,6917.876,95.437,540.763,538.718,0.0
53161.0,STARLINK-4055,PAYLOAD,2023-12-26 19:23:44,15.08840037,0.0001445,53.2158,172.8848,90.7032,269.4126,6.3259e-05,7.19e-06,0.0,0 STARLINK-4055,1 53161U 22083AF  23360.80815643  .00000719  00000-0  63259-4 0  9996,2 53161  53.2158 172.8848 0001445  90.7032 269.4126 15.08840037 80638,6917.88,95.438,540.745,538.746,0.0
53161.0,STARLINK-4055,PAYLOAD,2023-12-27 17:39:08,15.08840801,0.0001466,53.2162,168.7217,86.5694,273.5466,4.0586e-05,3.58e-06,0.0,0 STARLINK-4055,1 53161U 22083AF  23361.73551734  .00000358  00000-0  40586-4 0  9994,2 53161  53.2162 168.7217 0001466  86.5694 273.5466 15.08840801 80145,6917.878,95.438,540.757,538.729,0.0
53161.0,STARLINK-4055,PAYLOAD,2023-12-28 11:08:23,15.08840788,0.000145,53.2167,165.4488,90.6626,269.4533,5.1837e-05,5.37e-06,0.0,0 STARLINK-4055,1 53161U 22083AF  23362.46415636  .00000537  00000-0  51837-4 0  9995,2 53161  53.2167 165.4488 0001450  90.6626 269.4533 15.08840788 80882,6917.878,95.438,540.746,538.74,0.0
53161.0,STARLINK-4055,PAYLOAD,2023-12-28 14:19:09,15.08842241,0.0001398,53.2161,164.8555,95.179,264.9362,6.4205e-05,7.34e-06,0.0,0 STARLINK-4055,1 53161U 22083AF  23362.59663442  .00000734  00000-0  64205-4 0  9991,2 53161  53.2161 164.8555 0001398  95.1790 264.9362 15.08842241 80276,6917.874,95.437,540.706,538.771,0.0
53161.0,STARLINK-4055,PAYLOAD,2023-12-28 17:29:55,15.08842849,0.00014,53.2163,164.2608,93.5503,266.5649,6.7502e-05,7.87e-06,0.0,0 STARLINK-4055,1 53161U 22083AF  23362.72911384  .00000787  00000-0  67502-4 0  9998,2 53161  53.2163 164.2608 0001400  93.5503 266.5649 15.08842849 80291,6917.872,95.437,540.705,538.768,0.0
53161.0,STARLINK-4055,PAYLOAD,2023-12-29 14:09:56,15.08837538,0.0001473,53.2169,160.3973,89.5329,270.5832,1.52e-05,-4.6e-07,0.0,0 STARLINK-4055,1 53161U 22083AF  23363.59023932 -.00000046  00000-0  15200-4 0  9994,2 53161  53.2169 160.3973 0001473  89.5329 270.5832 15.08837538 80423,6917.888,95.438,540.772,538.734,0.0
53161.0,STARLINK-4055,PAYLOAD,2023-12-29 17:20:42,15.08837566,0.000145,53.2171,159.8026,90.3445,269.7713,1.1539e-05,-1.04e-06,0.0,0 STARLINK-4055,1 53161U 22083AF  23363.72271936 -.00000104  00000-0  11539-4 0  9994,2 53161  53.2171 159.8026 0001450  90.3445 269.7713 15.08837566 81073,6917.888,95.438,540.756,538.75,0.0
53161.0,STARLINK-4055,PAYLOAD,2023-12-30 14:00:43,15.0884046,0.0001444,53.2172,155.9368,94.8651,265.2506,3.8802e-05,3.3e-06,0.0,0 STARLINK-4055,1 53161U 22083AF  23364.58383669  .00000330  00000-0  38802-4 0  9998,2 53161  53.2172 155.9368 0001444  94.8651 265.2506 15.08840460 80573,6917.879,95.438,540.743,538.745,0.0
53161.0,STARLINK-4055,PAYLOAD,2023-12-30 20:22:15,15.08844518,0.0001383,53.2165,154.7451,88.1643,271.9507,5.1336e-05,5.29e-06,0.0,0 STARLINK-4055,1 53161U 22083AF  23364.84879298  .00000529  00000-0  51336-4 0  9992,2 53161  53.2165 154.7451 0001383  88.1643 271.9507 15.08844518 80612,6917.867,95.437,540.688,538.775,0.0
53161.0,STARLINK-4055,PAYLOAD,2023-12-31 10:40:44,15.08835218,0.0001455,53.2166,152.0671,98.4303,261.6854,-1.177e-05,-4.75e-06,0.0,0 STARLINK-4055,1 53161U 22083AF  23365.44496260 -.00000475  00000-0 -11770-4 0  9993,2 53161  53.2166 152.0671 0001455  98.4303 261.6854 15.08835218 81333,6917.895,95.438,540.767,538.753,0.0
53161.0,STARLINK-4055,PAYLOAD,2023-12-31 15:26:54,15.08833946,0.0001418,53.2168,151.1751,93.7603,266.3551,1.785e-05,-4e-08,0.0,0 STARLINK-4055,1 53161U 22083AF  23365.64368280 -.00000004  00000-0  17850-4 0  9997,2 53161  53.2168 151.1751 0001418  93.7603 266.3551 15.08833946 80739,6917.899,95.438,540.745,538.783,0.0
53161.0,STARLINK-4055,PAYLOAD,2024-01-01 13:42:17,15.088425,0.0001449,53.2168,147.0133,102.1569,257.9585,-8.0101e-06,-4.15e-06,0.0,0 STARLINK-4055,1 53161U 22083AF  24001.57104042 -.00000415  00000-0 -80101-5 0  9998,2 53161  53.2168 147.0133 0001449 102.1569 257.9585 15.08842500 80871,6917.873,95.437,540.74,538.735,0.0
53161.0,STARLINK-4055,PAYLOAD,2024-01-01 15:17:41,15.08839397,0.0001555,53.2179,146.7164,102.8842,257.2323,4.1429e-05,3.71e-06,0.0,0 STARLINK-4055,1 53161U 22083AF  24001.63728049  .00000371  00000-0  41429-4 0  9992,2 53161  53.2179 146.7164 0001555 102.8842 257.2323 15.08839397 81517,6917.882,95.438,540.823,538.672,0.0
53161.0,STARLINK-4055,PAYLOAD,2024-01-02 13:33:05,15.08838395,0.0001367,53.2173,142.5533,94.4665,265.6483,7.3481e-05,8.82e-06,0.0,0 STARLINK-4055,1 53161U 22083AF  24002.56464150  .00000882  00000-0  73481-4 0  9995,2 53161  53.2173 142.5533 0001367  94.4665 265.6483 15.08838395 81028,6917.885,95.438,540.696,538.805,0.0
53161.0,STARLINK-4055,PAYLOAD,2024-01-02 16:43:51,15.08841391,0.0001338,53.2169,141.9585,87.564,272.5505,9.761e-05,1.266e-05,0.0,0 STARLINK-4055,1 53161U 22083AF  24002.69711928  .00001266  00000-0  97610-4 0  9994,2 53161  53.2169 141.9585 0001338  87.5640 272.5505 15.08841391 81670,6917.876,95.437,540.667,538.816,0.0
53161.0,STARLINK-4055,PAYLOAD,2024-01-03 13:23:52,15.08833826,0.0001462,53.2167,138.0935,73.079,287.0362,-1.4791e-05,-5.23e-06,0.0,0 STARLINK-4055,1 53161U 22083AF  24003.55825043 -.00000523  00000-0 -14791-4 0  9990,2 53161  53.2167 138.0935 0001462  73.0790 287.0362 15.08833826 81179,6917.899,95.438,540.776,538.753,0.0
53161.0,STARLINK-4055,PAYLOAD,2024-01-03 16:34:38,15.08837344,0.000138,53.2169,137.498,80.8387,279.2761,2.9466e-06,-2.41e-06,0.0,0 STARLINK-4055,1 53161U 22083AF  24003.69072755 -.00000241  00000-0  29466-5 0  9991,2 53161  53.2169 137.4980 0001380  80.8387 279.2761 15.08837344 81828,6917.889,95.438,540.708,538.799,0.0
53161.0,STARLINK-4055,PAYLOAD,2024-01-04 13:14:39,15.08841115,0.0001444,53.2164,133.6335,79.3752,280.7402,5.5139e-05,5.9e-06,0.0,0 STARLINK-4055,1 53161U 22083AF  24004.55184408  .00000590  00000-0  55139-4 0  9997,2 53161  53.2164 133.6335 0001444  79.3752 280.7402 15.08841115 81320,6917.877,95.437,540.741,538.743,0.0
53161.0,STARLINK-4055,PAYLOAD,2024-01-04 14:50:02,15.08843009,0.0001411,53.2164,133.336,75.0442,285.0706,6.3106e-05,7.17e-06,0.0,0 STARLINK-4055,1 53161U 22083AF  24004.61808279  .00000717  00000-0  63106-4 0  9997,2 53161  53.2164 133.3360 0001411  75.0442 285.0706 15.08843009 81967,6917.871,95.437,540.712,538.76,0.0
53161.0,STARLINK-4055,PAYLOAD,2024-01-05 11:30:03,15.08835912,0.0001394,53.2158,129.4713,79.4511,280.6638,3.0728e-05,2.01e-06,0.0,0 STARLINK-4055,1 53161U 22083AF  24005.47920963  .00000201  00000-0  30728-4 0  9999,2 53161  53.2158 129.4713 0001394  79.4511 280.6638 15.08835912 82097,6917.893,95.438,540.722,538.794,0.0
53161.0,STARLINK-4055,PAYLOAD,2024-01-05 14:40:49,15.08837022,0.0001365,53.2163,128.8756,83.1203,276.9944,3.7179e-05,3.04e-06,0.0,0 STARLINK-4055,1 53161U 22083AF  24005.61168884  .00000304  00000-0  37179-4 0  9992,2 53161  53.2163 128.8756 0001365  83.1203 276.9944 15.08837022 81485,6917.889,95.438,540.699,538.81,0.0
53161.0,STARLINK-4055,PAYLOAD,2024-01-06 12:56:13,15.08839197,0.0001299,53.2164,124.7123,88.9715,271.1426,1.4382e-06,-2.65e-06,0.0,0 STARLINK-4055,1 53161U 22083AF  24006.53904954 -.00000265  00000-0  14382-5 0  9999,2 53161  53.2164 124.7123 0001299  88.9715 271.1426 15.08839197 81629,6917.883,95.438,540.646,538.849,0.0
53161.0,STARLINK-4055,PAYLOAD,2024-01-06 14:31:36,15.08852386,0.0001604,53.2165,124.4139,103.4185,256.6986,-0.00011396,-2.102e-05,0.0,0 STARLINK-4055,1 53161U 22083AF  24006.60528458 -.00002102  00000-0 -11396-3 0  9991,2 53161  53.2165 124.4139 0001604 103.4185 256.6986 15.08852386 82263,6917.843,95.437,540.817,538.598,0.0
